0 PSLV DEB
1 28429U 01049NP  13282.35416806  .00008911  00000-0  87878-3 0  1046
2 28429 097.6064 324.6062 0031599 111.8843 248.5742 14.91850531542241
0 PSLV DEB
1 28429U 01049NP  13283.36025196  .00008235  00000-0  81242-3 0  1055
2 28429 097.6064 325.5771 0031512 108.7541 251.7102 14.91861077542392
0 PSLV DEB
1 28429U 01049NP  13285.90896404  .00007014  00000-0  69238-3 0  1072
2 28429 097.6064 328.0372 0031485 100.7965 259.6801 14.91888264542770
0 PSLV DEB
1 28429U 01049NP  13287.38451183  .00007688  00000-0  75806-3 0  1083
2 28429 097.6063 329.4613 0031580 096.1395 264.3424 14.91903019542997
0 PSLV DEB
1 28429U 01049NP  13288.32348599  .00011645  00000-0  11442-2 0  1098
2 28429 097.6061 330.3676 0031610 093.1588 267.3248 14.91922904543138
0 PSLV DEB
1 28429U 01049NP  13289.93312901  .00010035  00000-0  98633-3 0  1106
2 28429 097.6056 331.9211 0031655 088.0699 272.4145 14.91948125543371
0 PSLV DEB
1 28429U 01049NP  13290.93914188  .00008790  00000-0  86438-3 0  1119
2 28429 097.6054 332.8922 0031569 084.7555 275.7266 14.91967668543526
0 PSLV DEB
1 28429U 01049NP  13291.94514262  .00007320  00000-0  72064-3 0  1129
2 28429 097.6050 333.8631 0031467 081.4888 278.9896 14.91983423543677
0 PSLV DEB
1 28429U 01049NP  13293.35352625  .00007861  00000-0  77313-3 0  1132
2 28429 097.6043 335.2225 0031294 076.9167 283.5543 14.92001184543881
0 PSLV DEB
1 28429U 01049NP  13294.35950370  .00009034  00000-0  88739-3 0  1143
2 28429 097.6039 336.1932 0031208 073.6925 286.7722 14.92011464544036
0 PSLV DEB
1 28429U 01049NP  13295.36547340  .00009921  00000-0  97360-3 0  1150
2 28429 097.6038 337.1640 0031098 070.4934 289.9640 14.92024347544188
